QIANFAN-1               
1 60379U 24140A   25198.85894724  .00000121  00000+0  16894-3 0  9992
2 60379  88.9843 314.5532 0015452 282.3929  77.5492 13.50951719 47389
QIANFAN-2               
1 60380U 24140B   25198.88779796  .00000126  00000+0  17628-3 0  9999
2 60380  88.9829 314.4102 0011014 249.5229 110.4740 13.50958194 47449
QIANFAN-3               
1 60381U 24140C   25198.89594782  .00000129  00000+0  18167-3 0  9993
2 60381  88.9821 314.5528 0011944 264.4682  95.5107 13.50956274 47353
QIANFAN-4               
1 60382U 24140D   25198.87129501  .00000126  00000+0  17684-3 0  9995
2 60382  88.9846 314.4160 0011196 252.7029 107.2897 13.50951721 47478
QIANFAN-5               
1 60383U 24140E   25198.84668604  .00000116  00000+0  16134-3 0  9993
2 60383  88.9821 314.5837 0013132 277.9219  82.0442 13.50954827 47337
QIANFAN-6               
1 60384U 24140F   25198.86713141  .00000119  00000+0  16653-3 0  9992
2 60384  88.9847 314.2885 0011218 259.7247 100.2639 13.50956229 47539
QIANFAN-7               
1 60385U 24140G   25198.84539783  .00000458  00000+0  18051-3 0  9999
2 60385  88.9850 311.0667 0016181 159.3799 200.8052 14.27478487 49299
QIANFAN-8               
1 60386U 24140H   25198.87548447  .00000123  00000+0  17152-3 0  9990
2 60386  88.9849 314.5225 0014639 263.0295  96.9191 13.50955420 47384
